{
  "type": "FeatureCollection",
  "features": [
    {
      "type": "Feature",
      "properties": {
        "norad_id": 40115,
        "name": "WORLDVIEW-3 (WV-3)",
        "group": "resource",
        "lat": -0.484847807165184,
        "lon": 60.1188527519352,
        "alt_km": 618.4416728535762,
        "timestamp": "2025-12-13T18:50:04.085518+00:00",
        "meta_object_name": "WORLDVIEW-3 (WV-3)",
        "meta_object_id": "2014-048A",
        "meta_epoch": "2025-12-13T05:54:14.167584",
        "meta_mean_motion": 14.85514922,
        "meta_eccentricity": 0.0004843,
        "meta_inclination": 97.8614,
        "meta_ra_of_asc_node": 59.5199,
        "meta_arg_of_pericenter": 182.8733,
        "meta_mean_anomaly": 177.2455,
        "meta_ephemeris_type": 0,
        "meta_classification_type": "U",
        "meta_norad_cat_id": 40115,
        "meta_element_set_no": 999,
        "meta_rev_at_epoch": 61431,
        "meta_bstar": 0.00022973936,
        "meta_mean_motion_dot": 1.93e-05,
        "meta_mean_motion_ddot": 0,
        "tle_line1": "1 40115U 14048A   25347.24599731  .00001930  00000+0  22974-3 0  9998",
        "tle_line2": "2 40115  97.8614  59.5199 0004843 182.8733 177.2455 14.85514922614314"
      },
      "geometry": {
        "type": "Point",
        "coordinates": [
          60.1188527519352,
          -0.484847807165184
        ]
      }
    },
    {
      "type": "Feature",
      "properties": {
        "norad_id": 40118,
        "name": "GAOFEN-2",
        "group": "resource",
        "lat": 20.958923036720446,
        "lon": -129.94227745844788,
        "alt_km": 623.3316291929968,
        "timestamp": "2025-12-13T18:50:04.085529+00:00",
        "meta_object_name": "GAOFEN-2",
        "meta_object_id": "2014-049A",
        "meta_epoch": "2025-12-13T06:46:01.825248",
        "meta_mean_motion": 14.80614024,
        "meta_eccentricity": 0.00086563,
        "meta_inclination": 98.0383,
        "meta_ra_of_asc_node": 46.4511,
        "meta_arg_of_pericenter": 111.4238,
        "meta_mean_anomaly": 248.7898,
        "meta_ephemeris_type": 0,
        "meta_classification_type": "U",
        "meta_norad_cat_id": 40118,
        "meta_element_set_no": 999,
        "meta_rev_at_epoch": 61172,
        "meta_bstar": 0.00028001486,
        "meta_mean_motion_dot": 2.097e-05,
        "meta_mean_motion_ddot": 0,
        "tle_line1": "1 40118U 14049A   25347.28196557  .00002097  00000+0  28001-3 0  9997",
        "tle_line2": "2 40118  98.0383  46.4511 0008656 111.4238 248.7898 14.80614024611726"
      },
      "geometry": {
        "type": "Point",
        "coordinates": [
          -129.94227745844788,
          20.958923036720446
        ]
      }
    },
    {
      "type": "Feature",
      "properties": {
        "norad_id": 40143,
        "name": "YAOGAN-21",
        "group": "resource",
        "lat": -74.55930021499572,
        "lon": 58.19028743857559,
        "alt_km": 504.7411055237453,
        "timestamp": "2025-12-13T18:50:04.085539+00:00",
        "meta_object_name": "YAOGAN-21",
        "meta_object_id": "2014-053A",
        "meta_epoch": "2025-12-13T06:33:34.828992",
        "meta_mean_motion": 15.23688633,
        "meta_eccentricity": 0.00096149,
        "meta_inclination": 97.1758,
        "meta_ra_of_asc_node": 30.5632,
        "meta_arg_of_pericenter": 39.6888,
        "meta_mean_anomaly": 320.5051,
        "meta_ephemeris_type": 0,
        "meta_classification_type": "U",
        "meta_norad_cat_id": 40143,
        "meta_element_set_no": 999,
        "meta_rev_at_epoch": 62662,
        "meta_bstar": 0.00036032287,
        "meta_mean_motion_dot": 8.593e-05,
        "meta_mean_motion_ddot": 0,
        "tle_line1": "1 40143U 14053A   25347.27331978  .00008593  00000+0  36032-3 0  9997",
        "tle_line2": "2 40143  97.1758  30.5632 0009614  39.6888 320.5051 15.23688633626625"
      },
      "geometry": {
        "type": "Point",
        "coordinates": [
          58.19028743857559,
          -74.55930021499572
        ]
      }
    },
    {
      "type": "Feature",
      "properties": {
        "norad_id": 40275,
        "name": "YAOGAN-22",
        "group": "resource",
        "lat": 55.469140785803205,
        "lon": 115.204421044943,
        "alt_km": 1200.9027771118617,
        "timestamp": "2025-12-13T18:50:04.085553+00:00",
        "meta_object_name": "YAOGAN-22",
        "meta_object_id": "2014-063A",
        "meta_epoch": "2025-12-13T07:35:38.904000",
        "meta_mean_motion": 13.1552264,
        "meta_eccentricity": 0.00059566,
        "meta_inclination": 100.7422,
        "meta_ra_of_asc_node": 130.744,
        "meta_arg_of_pericenter": 246.8495,
        "meta_mean_anomaly": 113.1989,
        "meta_ephemeris_type": 0,
        "meta_classification_type": "U",
        "meta_norad_cat_id": 40275,
        "meta_element_set_no": 999,
        "meta_rev_at_epoch": 53537,
        "meta_bstar": 7.437183e-06,
        "meta_mean_motion_dot": -4.4e-07,
        "meta_mean_motion_ddot": 0,
        "tle_line1": "1 40275U 14063A   25347.31642250 -.00000044  00000+0  74372-5 0  9992",
        "tle_line2": "2 40275 100.7422 130.7440 0005956 246.8495 113.1989 13.15522640535372"
      },
      "geometry": {
        "type": "Point",
        "coordinates": [
          115.204421044943,
          55.469140785803205
        ]
      }
    },
    {
      "type": "Feature",
      "properties": {
        "norad_id": 40298,
        "name": "ASNARO",
        "group": "resource",
        "lat": -43.6394413441589,
        "lon": 70.79051279127006,
        "alt_km": 517.7068916681701,
        "timestamp": "2025-12-13T18:50:04.085564+00:00",
        "meta_object_name": "ASNARO",
        "meta_object_id": "2014-070A",
        "meta_epoch": "2025-12-13T06:23:05.044704",
        "meta_mean_motion": 15.19516725,
        "meta_eccentricity": 0.00056581,
        "meta_inclination": 97.3652,
        "meta_ra_of_asc_node": 63.1991,
        "meta_arg_of_pericenter": 120.6273,
        "meta_mean_anomaly": 239.552,
        "meta_ephemeris_type": 0,
        "meta_classification_type": "U",
        "meta_norad_cat_id": 40298,
        "meta_element_set_no": 999,
        "meta_rev_at_epoch": 61577,
        "meta_bstar": 0.00077847641,
        "meta_mean_motion_dot": 0.00016498,
        "meta_mean_motion_ddot": 0,
        "tle_line1": "1 40298U 14070A   25347.26603061  .00016498  00000+0  77848-3 0  9994",
        "tle_line2": "2 40298  97.3652  63.1991 0005658 120.6273 239.5520 15.19516725615775"
      },
      "geometry": {
        "type": "Point",
        "coordinates": [
          70.79051279127006,
          -43.6394413441589
        ]
      }
    },
    {
      "type": "Feature",
      "properties": {
        "norad_id": 40310,
        "name": "YAOGAN-24",
        "group": "resource",
        "lat": 53.46579862045353,
        "lon": -50.00386717509074,
        "alt_km": 626.1209552072078,
        "timestamp": "2025-12-13T18:50:04.085575+00:00",
        "meta_object_name": "YAOGAN-24",
        "meta_object_id": "2014-072A",
        "meta_epoch": "2025-12-13T08:30:24.191424",
        "meta_mean_motion": 14.76181233,
        "meta_eccentricity": 0.00147923,
        "meta_inclination": 98.1218,
        "meta_ra_of_asc_node": 118.4504,
        "meta_arg_of_pericenter": 136.1883,
        "meta_mean_anomaly": 224.0502,
        "meta_ephemeris_type": 0,
        "meta_classification_type": "U",
        "meta_norad_cat_id": 40310,
        "meta_element_set_no": 999,
        "meta_rev_at_epoch": 59630,
        "meta_bstar": 0.0002844226,
        "meta_mean_motion_dot": 1.917e-05,
        "meta_mean_motion_ddot": 0,
        "tle_line1": "1 40310U 14072A   25347.35444666  .00001917  00000+0  28442-3 0  9991",
        "tle_line2": "2 40310  98.1218 118.4504 0014792 136.1883 224.0502 14.76181233596309"
      },
      "geometry": {
        "type": "Point",
        "coordinates": [
          -50.00386717509074,
          53.46579862045353
        ]
      }
    },
    {
      "type": "Feature",
      "properties": {
        "norad_id": 40336,
        "name": "CBERS 4",
        "group": "resource",
        "lat": 71.50436292754164,
        "lon": 19.78737174606695,
        "alt_km": 765.4815124316019,
        "timestamp": "2025-12-13T18:50:04.085585+00:00",
        "meta_object_name": "CBERS 4",
        "meta_object_id": "2014-079A",
        "meta_epoch": "2025-12-13T06:47:01.817088",
        "meta_mean_motion": 14.35518392,
        "meta_eccentricity": 0.00016528,
        "meta_inclination": 98.3306,
        "meta_ra_of_asc_node": 45.2805,
        "meta_arg_of_pericenter": 111.5248,
        "meta_mean_anomaly": 248.6115,
        "meta_ephemeris_type": 0,
        "meta_classification_type": "U",
        "meta_norad_cat_id": 40336,
        "meta_element_set_no": 999,
        "meta_rev_at_epoch": 57728,
        "meta_bstar": 0.00012678097,
        "meta_mean_motion_dot": 3.23e-06,
        "meta_mean_motion_ddot": 0,
        "tle_line1": "1 40336U 14079A   25347.28265992  .00000323  00000+0  12678-3 0  9995",
        "tle_line2": "2 40336  98.3306  45.2805 0001652 111.5248 248.6115 14.35518392577284"
      },
      "geometry": {
        "type": "Point",
        "coordinates": [
          19.78737174606695,
          71.50436292754164
        ]
      }
    }
  ]
}